COMMENT,ORIGINATOR,NORAD_CAT_ID,OBJECT_NAME,OBJECT_TYPE,CLASSIFICATION_TYPE,INTLDES,EPOCH,EPOCH_MICROSECONDS,MEAN_MOTION,ECCENTRICITY,INCLINATION,RA_OF_ASC_NODE,ARG_OF_PERICENTER,MEAN_ANOMALY,EPHEMERIS_TYPE,ELEMENT_SET_NO,REV_AT_EPOCH,BSTAR,MEAN_MOTION_DOT,MEAN_MOTION_DDOT,FILE,TLE_LINE0,TLE_LINE1,TLE_LINE2,OBJECT_ID,OBJECT_NUMBER,SEMIMAJOR_AXIS,PERIOD,APOGEE,PERIGEE,DECAYED
"GENERATED VIA SPACETRACK.ORG API","18 SPCS","48896","SPACEBEE-105","PAYLOAD","U","21059T","2021-11-16 19:49:10","193088","15.12463469","0.001043","97.5309","87.4987","108.318","251.9186","0","999","2176","0.00016825","0.00002864","0","3217236","0 SPACEBEE-105","1 48896U 21059T   21320.82581242  .00002864  00000-0  16825-3 0  9997","2 48896  97.5309  87.4987 0010430 108.3180 251.9186 15.12463469 21761","2021-059T","48896","6906.827","95.209","535.896","521.488","0"
"GENERATED VIA SPACETRACK.ORG API","18 SPCS","48896","SPACEBEE-105","PAYLOAD","U","21059T","2021-11-17 08:31:19","375968","15.12465878","0.0010443","97.531","88.0209","106.6775","253.5602","0","999","2184","0.00015424","0.0000262","0","3217692","0 SPACEBEE-105","1 48896U 21059T   21321.35508537  .00002620  00000-0  15424-3 0  9996","2 48896  97.5310  88.0209 0010443 106.6775 253.5602 15.12465878 21848","2021-059T","48896","6906.820","95.209","535.897","521.472","0"
"GENERATED VIA SPACETRACK.ORG API","18 SPCS","48896","SPACEBEE-105","PAYLOAD","U","21059T","2021-11-17 19:38:12","360768","15.12467717","0.0010457","97.5312","88.4779","105.2356","255.0031","0","999","2191","0.00013962","0.00002366","0","3217982","0 SPACEBEE-105","1 48896U 21059T   21321.81819862  .00002366  00000-0  13962-3 0  9995","2 48896  97.5312  88.4779 0010457 105.2356 255.0031 15.12467717 21916","2021-059T","48896","6906.814","95.209","535.902","521.457","0"
"GENERATED VIA SPACETRACK.ORG API","18 SPCS","48896","SPACEBEE-105","PAYLOAD","U","21059T","2021-11-18 00:24:00","776160","15.12468594","0.0010463","97.5312","88.6738","104.6321","255.6071","0","999","2194","0.00013866","0.00002349","0","3218070","0 SPACEBEE-105","1 48896U 21059T   21322.01667565  .00002349  00000-0  13866-3 0  9993","2 48896  97.5312  88.6738 0010463 104.6321 255.6071 15.12468594 21942","2021-059T","48896","6906.811","95.209","535.903","521.450","0"
"GENERATED VIA SPACETRACK.ORG API","18 SPCS","48896","SPACEBEE-105","PAYLOAD","U","21059T","2021-11-18 08:20:21","401088","15.12470031","0.0010469","97.5313","89.0002","103.64","256.5997","0","999","2199","0.00012872","0.00002176","0","3218461","0 SPACEBEE-105","1 48896U 21059T   21322.34746992  .00002176  00000-0  12872-3 0  9995","2 48896  97.5313  89.0002 0010469 103.6400 256.5997 15.12470031 21996","2021-059T","48896","6906.807","95.208","535.903","521.441","0"
"GENERATED VIA SPACETRACK.ORG API","18 SPCS","48896","SPACEBEE-105","PAYLOAD","U","21059T","2021-11-18 19:27:14","263200","15.12471483","0.0010467","97.5314","89.4572","102.2293","258.011","0","999","2206","0.00011131","0.00001873","0","3218669","0 SPACEBEE-105","1 48896U 21059T   21322.81058175  .00001873  00000-0  11131-3 0  9996","2 48896  97.5314  89.4572 0010467 102.2293 258.0110 15.12471483 22061","2021-059T","48896","6906.803","95.208","535.897","521.438","0"
"GENERATED VIA SPACETRACK.ORG API","18 SPCS","48896","SPACEBEE-105","PAYLOAD","U","21059T","2021-11-19 01:48:18","729792","15.12472573","0.001047","97.5315","89.7184","101.4179","258.8228","0","999","2210","0.00010871","0.00001828","0","3218802","0 SPACEBEE-105","1 48896U 21059T   21323.07521678  .00001828  00000-0  10871-3 0  9998","2 48896  97.5315  89.7184 0010470 101.4179 258.8228 15.12472573 22106","2021-059T","48896","6906.799","95.208","535.896","521.433","0"
"GENERATED VIA SPACETRACK.ORG API","18 SPCS","48896","SPACEBEE-105","PAYLOAD","U","21059T","2021-11-19 08:09:23","197248","15.1247409","0.0010468","97.5315","89.9795","100.6029","259.6381","0","999","2214","0.00011519","0.00001941","0","3219209","0 SPACEBEE-105","1 48896U 21059T   21323.33985182  .00001941  00000-0  11519-3 0  9997","2 48896  97.5315  89.9795 0010468 100.6029 259.6381 15.12474090 22147","2021-059T","48896","6906.795","95.208","535.890","521.430","0"
"GENERATED VIA SPACETRACK.ORG API","18 SPCS","48896","SPACEBEE-105","PAYLOAD","U","21059T","2021-11-19 19:16:15","956544","15.12476285","0.0010479","97.5316","90.4366","99.2166","261.0251","0","999","2221","0.00011778","0.00001986","0","3219247","0 SPACEBEE-105","1 48896U 21059T   21323.80296246  .00001986  00000-0  11778-3 0  9991","2 48896  97.5316  90.4366 0010479  99.2166 261.0251 15.12476285 22215","2021-059T","48896","6906.788","95.208","535.891","521.415","0"
"GENERATED VIA SPACETRACK.ORG API","18 SPCS","48896","SPACEBEE-105","PAYLOAD","U","21059T","2021-11-20 03:12:36","451008","15.12477097","0.001047","97.5316","90.763","98.2075","262.0343","0","999","2226","0.00010631","0.00001786","0","3219443","0 SPACEBEE-105","1 48896U 21059T   21324.13375522  .00001786  00000-0  10631-3 0  9998","2 48896  97.5316  90.7630 0010470  98.2075 262.0343 15.12477097 22261","2021-059T","48896","6906.786","95.208","535.882","521.419","0"
"GENERATED VIA SPACETRACK.ORG API","18 SPCS","48896","SPACEBEE-105","PAYLOAD","U","21059T","2021-11-20 07:58:24","763584","15.12478375","0.0010471","97.5317","90.9589","97.5971","262.645","0","999","2229","0.00011697","0.00001972","0","3220049","0 SPACEBEE-105","1 48896U 21059T   21324.33223106  .00001972  00000-0  11697-3 0  9990","2 48896  97.5317  90.9589 0010471  97.5971 262.6450 15.12478375 22293","2021-059T","48896","6906.782","95.208","535.879","521.415","0"
"GENERATED VIA SPACETRACK.ORG API","18 SPCS","48896","SPACEBEE-105","PAYLOAD","U","21059T","2021-11-20 15:54:45","240768","15.12479937","0.001047","97.5318","91.2853","96.6131","263.6292","0","999","2234","0.00012323","0.00002081","0","3220242","0 SPACEBEE-105","1 48896U 21059T   21324.66302362  .00002081  00000-0  12323-3 0  9997","2 48896  97.5318  91.2853 0010470  96.6131 263.6292 15.12479937 22345","2021-059T","48896","6906.777","95.208","535.873","521.410","0"
"GENERATED VIA SPACETRACK.ORG API","18 SPCS","48896","SPACEBEE-105","PAYLOAD","U","21059T","2021-11-21 07:47:26","95776","15.12482988","0.001046","97.5318","91.9382","94.612","265.6305","0","999","2244","0.00013123","0.00002221","0","3220528","0 SPACEBEE-105","1 48896U 21059T   21325.32460759  .00002221  00000-0  13123-3 0  9991","2 48896  97.5318  91.9382 0010460  94.6120 265.6305 15.12482988 22442","2021-059T","48896","6906.768","95.208","535.857","521.408","0"
"GENERATED VIA SPACETRACK.ORG API","18 SPCS","48896","SPACEBEE-105","PAYLOAD","U","21059T","2021-11-21 07:47:26","95776","15.12482988","0.001046","97.5318","91.9382","94.612","265.6305","0","999","2244","0.00013123","0.00002221","0","3220686","0 SPACEBEE-105","1 48896U 21059T   21325.32460759  .00002221  00000-0  13123-3 0  9991","2 48896  97.5318  91.9382 0010460  94.6120 265.6305 15.12482988 22442","2021-059T","48896","6906.768","95.208","535.857","521.408","0"
"GENERATED VIA SPACETRACK.ORG API","18 SPCS","48896","SPACEBEE-105","PAYLOAD","U","21059T","2021-11-21 18:54:18","635616","15.12485358","0.0010459","97.5319","92.3953","93.2799","266.9628","0","999","2251","0.00014164","0.00002402","0","3220934","0 SPACEBEE-105","1 48896U 21059T   21325.78771569  .00002402  00000-0  14164-3 0  9992","2 48896  97.5319  92.3953 0010459  93.2799 266.9628 15.12485358 22511","2021-059T","48896","6906.760","95.208","535.849","521.402","0"
"GENERATED VIA SPACETRACK.ORG API","18 SPCS","48896","SPACEBEE-105","PAYLOAD","U","21059T","2021-11-22 13:57:31","408128","15.12489122","0.0010449","97.532","93.1788","90.9028","269.3399","0","999","2263","0.00014999","0.00002548","0","3221278","0 SPACEBEE-105","1 48896U 21059T   21326.58161352  .00002548  00000-0  14999-3 0  9991","2 48896  97.5320  93.1788 0010449  90.9028 269.3399 15.12489122 22634","2021-059T","48896","6906.749","95.207","535.831","521.397","0"
"GENERATED VIA SPACETRACK.ORG API","18 SPCS","48896","SPACEBEE-105","PAYLOAD","U","21059T","2021-11-22 18:43:19","574688","15.1249014","0.0010443","97.532","93.3746","90.3285","269.9143","0","999","2266","0.00015187","0.00002581","0","3221427","0 SPACEBEE-105","1 48896U 21059T   21326.78008767  .00002581  00000-0  15187-3 0  9990","2 48896  97.5320  93.3746 0010443  90.3285 269.9143 15.12490140 22661","2021-059T","48896","6906.746","95.207","535.824","521.398","0"
"GENERATED VIA SPACETRACK.ORG API","18 SPCS","48896","SPACEBEE-105","PAYLOAD","U","21059T","2021-11-22 18:43:19","574688","15.1249014","0.0010443","97.532","93.3746","90.3285","269.9143","0","999","2266","0.00015187","0.00002581","0","3221662","0 SPACEBEE-105","1 48896U 21059T   21326.78008767  .00002581  00000-0  15187-3 0  9990","2 48896  97.5320  93.3746 0010443  90.3285 269.9143 15.12490140 22661","2021-059T","48896","6906.746","95.207","535.824","521.398","0"
"GENERATED VIA SPACETRACK.ORG API","18 SPCS","48896","SPACEBEE-105","PAYLOAD","U","21059T","2021-11-23 07:25:27","930720","15.12493094","0.0010433","97.5319","93.8969","88.7373","271.5053","0","999","2274","0.00015796","0.00002687","0","3222418","0 SPACEBEE-105","1 48896U 21059T   21327.30935105  .00002687  00000-0  15796-3 0  9997","2 48896  97.5319  93.8969 0010433  88.7373 271.5053 15.12493094 22748","2021-059T","48896","6906.737","95.207","535.808","521.396","0"
"GENERATED VIA SPACETRACK.ORG API","18 SPCS","48896","SPACEBEE-105","PAYLOAD","U","21059T","2021-11-23 20:07:36","196896","15.12496555","0.0010429","97.5319","94.4192","87.117","273.1254","0","999","2282","0.00016932","0.00002885","0","3222563","0 SPACEBEE-105","1 48896U 21059T   21327.83861339  .00002885  00000-0  16932-3 0  9995","2 48896  97.5319  94.4192 0010429  87.1170 273.1254 15.12496555 22821","2021-059T","48896","6906.726","95.207","535.794","521.388","0"
